STARLINK-4324           
1 53085U 22077AU  26068.49914939  .00000178  00000+0  16559-4 0  9994
2 53085  97.6023 250.9843 0001629  86.7448 273.3965 15.05648447200951
EINSTEIN PROBE          
1 58753U 24007A   26068.60284448  .00004372  00000+0  31977-3 0  9994
2 58753  28.9980 140.9090 0009522 248.3814 111.5770 15.01336938118581
